ONEWEB-0128             
1 47274U 20100S   26010.98204926 -.00000280  00000+0 -81300-3 0  9992
2 47274  87.8918  21.9125 0001608  81.4343 278.6968 13.12442788244124
ONEWEB-0129             
1 47275U 20100T   26010.96172900 -.00000197  00000+0 -58394-3 0  9991
2 47275  87.8929  21.8742 0001248 132.8619 227.2614 13.12441531244053
ONEWEB-0130             
1 47276U 20100U   26010.98883518 -.00000132  00000+0 -40156-3 0  9994
2 47276  87.8928  21.8631 0001610  89.9732 270.1581 13.12445100244024
ONEWEB-0131             
1 47277U 20100V   26010.98544874 -.00000205  00000+0 -60536-3 0  9999
2 47277  87.8930  21.8942 0001704  89.1099 271.0224 13.12442859244061
ONEWEB-0132             
1 47278U 20100W   26010.93798722 -.00000663  00000+0 -18788-2 0  9997
2 47278  87.8921  21.9045 0001711  87.9264 272.2060 13.12446043243952
ONEWEB-0133             
1 47279U 20100X   26010.95480451  .00000047  00000+0  94424-4 0  9994
2 47279  87.8924  21.8628 0001691  84.9287 275.2035 13.12442454244117
ONEWEB-0134             
1 47280U 20100Y   26011.00070465  .00000256  00000+0  67576-3 0  9992
2 47280  87.8929  21.8499 0001499  87.2053 272.9247 13.12445059244093
ONEWEB-0135             
1 47281U 20100Z   26010.97189672 -.00000364  00000+0 -10485-2 0  9997
2 47281  87.8926  21.8946 0001480  82.8845 277.2452 13.12442838244119
